ONEWEB-0098             
1 45442U 20020U   24248.76249698 -.00000422  00000+0 -12271-2 0  9998
2 45442  87.8989 150.5864 0001930  82.0891 278.0456 13.11417970217398
ONEWEB-0055             
1 45443U 20020V   24248.74808685 -.00000218  00000+0 -65140-3 0  9991
2 45443  87.8986 150.5919 0001769  77.3761 282.7565 13.11415758217362
ONEWEB-0093             
1 45444U 20020W   24248.72351873  .00000602  00000+0  16621-2 0  9996
2 45444  87.8988 150.5788 0001579  76.8911 283.2393 13.11415841217424
ONEWEB-0029             
1 45445U 20020X   24248.74215657  .00000000  00000+0 -37147-4 0  9999
2 45445  87.8986 150.5885 0001630  71.6657 288.4649 13.11413769217405
ONEWEB-0068             
1 45446U 20020Y   24249.17534425  .00000565  00000+0  15591-2 0  9997
2 45446  87.8989 150.4884 0001654  71.9581 288.1727 13.11415206217415
ONEWEB-0046             
1 45447U 20020Z   24248.71503802  .00000510  00000+0  14044-2 0  9994
2 45447  87.8990 150.5916 0001870  63.9525 296.1795 13.11417553217358
ONEWEB-0063             
1 45448U 20020AA  24248.74385143 -.00000064  00000+0 -21574-3 0  9997
2 45448  87.8985 150.5860 0001973  68.0347 292.0990 13.11413320217443
ONEWEB-0019             
1 45449U 20020AB  24248.71842950  .00000574  00000+0  15841-2 0  9992
2 45449  87.8992 150.5973 0001951  75.9604 284.1741 13.11417192217285
